{
  "links" : {
    "next" : "https://api.nasa.gov/neo/rest/v1/feed?start_date=2012-05-23&end_date=2012-05-23&detailed=true&api_key=t0TVs3DtDT2H8Oy2Zy8m2eVrNsAVKAexjcZXUckd",
    "prev" : "https://api.nasa.gov/neo/rest/v1/feed?start_date=2012-05-21&end_date=2012-05-21&detailed=true&api_key=t0TVs3DtDT2H8Oy2Zy8m2eVrNsAVKAexjcZXUckd",
    "self" : "https://api.nasa.gov/neo/rest/v1/feed?start_date=2012-05-22&end_date=2012-05-22&detailed=true&api_key=t0TVs3DtDT2H8Oy2Zy8m2eVrNsAVKAexjcZXUckd"
  },
  "element_count" : 7,
  "near_earth_objects" : {
    "2012-05-22" : [ {
      "links" : {
        "self" : "https://api.nasa.gov/neo/rest/v1/neo/3354955?api_key=t0TVs3DtDT2H8Oy2Zy8m2eVrNsAVKAexjcZXUckd"
      },
      "neo_reference_id" : "3354955",
      "name" : "(2006 UZ215)",
      "nasa_jpl_url" : "http://ssd.jpl.nasa.gov/sbdb.cgi?sstr=3354955",
      "absolute_magnitude_h" : 25.5,
      "estimated_diameter" : {
        "kilometers" : {
          "estimated_diameter_min" : 0.0211132445,
          "estimated_diameter_max" : 0.0472106499
        },
        "meters" : {
          "estimated_diameter_min" : 21.113244479,
          "estimated_diameter_max" : 47.2106498806
        },
        "miles" : {
          "estimated_diameter_min" : 0.0131191578,
          "estimated_diameter_max" : 0.0293353287
        },
        "feet" : {
          "estimated_diameter_min" : 69.2691770164,
          "estimated_diameter_max" : 154.8905885541
        }
      },
      "is_potentially_hazardous_asteroid" : false,
      "close_approach_data" : [ {
        "close_approach_date" : "2012-05-22",
        "epoch_date_close_approach" : 1337670000000,
        "relative_velocity" : {
          "kilometers_per_second" : "11.8842387431",
          "kilometers_per_hour" : "42783.259475137",
          "miles_per_hour" : "26583.8536444261"
        },
        "miss_distance" : {
          "astronomical" : "0.3190913935",
          "lunar" : "124.1265487671",
          "kilometers" : "47735392",
          "miles" : "29661398"
        },
        "orbiting_body" : "Earth"
      } ],
      "orbital_data" : {
        "orbit_id" : "9",
        "orbit_determination_date" : "2017-04-06 09:07:45",
        "orbit_uncertainty" : "6",
        "minimum_orbit_intersection" : ".00997283",
        "jupiter_tisserand_invariant" : "6.633",
        "epoch_osculation" : "2458000.5",
        "eccentricity" : ".2066134559265337",
        "semi_major_axis" : ".8896818715220629",
        "inclination" : "14.26871364677129",
        "ascending_node_longitude" : "35.18007778138499",
        "orbital_period" : "306.5141575125883",
        "perihelion_distance" : ".7058616253717032",
        "perihelion_argument" : "222.287547803667",
        "aphelion_distance" : "1.073502117672423",
        "perihelion_time" : "2457920.309995282684",
        "mean_anomaly" : "94.18293083916737",
        "mean_motion" : "1.174497135536766",
        "equinox" : "J2000"
      }
    }, {
      "links" : {
        "self" : "https://api.nasa.gov/neo/rest/v1/neo/3605565?api_key=t0TVs3DtDT2H8Oy2Zy8m2eVrNsAVKAexjcZXUckd"
      },
      "neo_reference_id" : "3605565",
      "name" : "(2012 LD1)",
      "nasa_jpl_url" : "http://ssd.jpl.nasa.gov/sbdb.cgi?sstr=3605565",
      "absolute_magnitude_h" : 21.8,
      "estimated_diameter" : {
        "kilometers" : {
          "estimated_diameter_min" : 0.1160259082,
          "estimated_diameter_max" : 0.2594418179
        },
        "meters" : {
          "estimated_diameter_min" : 116.0259082094,
          "estimated_diameter_max" : 259.4418179074
        },
        "miles" : {
          "estimated_diameter_min" : 0.0720951346,
          "estimated_diameter_max" : 0.1612096218
        },
        "feet" : {
          "estimated_diameter_min" : 380.6624406898,
          "estimated_diameter_max" : 851.1870938635
        }
      },
      "is_potentially_hazardous_asteroid" : false,
      "close_approach_data" : [ {
        "close_approach_date" : "2012-05-22",
        "epoch_date_close_approach" : 1337670000000,
        "relative_velocity" : {
          "kilometers_per_second" : "8.0726395019",
          "kilometers_per_hour" : "29061.5022067896",
          "miles_per_hour" : "18057.6873017688"
        },
        "miss_distance" : {
          "astronomical" : "0.0840988296",
          "lunar" : "32.7144470215",
          "kilometers" : "12581006",
          "miles" : "7817475"
        },
        "orbiting_body" : "Earth"
      } ],
      "orbital_data" : {
        "orbit_id" : "23",
        "orbit_determination_date" : "2017-04-06 08:49:38",
        "orbit_uncertainty" : "2",
        "minimum_orbit_intersection" : ".0848699",
        "jupiter_tisserand_invariant" : "5.292",
        "epoch_osculation" : "2458000.5",
        "eccentricity" : ".1176042481012951",
        "semi_major_axis" : "1.1889502422664",
        "inclination" : "15.23965697871666",
        "ascending_node_longitude" : "246.1373132972053",
        "orbital_period" : "473.5261270689481",
        "perihelion_distance" : "1.049124642994807",
        "perihelion_argument" : "303.2352334456799",
        "aphelion_distance" : "1.328775841537992",
        "perihelion_time" : "2457908.797585617890",
        "mean_anomaly" : "69.7171017403071",
        "mean_motion" : ".7602537207996169",
        "equinox" : "J2000"
      }
    }, {
      "links" : {
        "self" : "https://api.nasa.gov/neo/rest/v1/neo/3772993?api_key=t0TVs3DtDT2H8Oy2Zy8m2eVrNsAVKAexjcZXUckd"
      },
      "neo_reference_id" : "3772993",
      "name" : "(2017 FY101)",
      "nasa_jpl_url" : "http://ssd.jpl.nasa.gov/sbdb.cgi?sstr=3772993",
      "absolute_magnitude_h" : 27.197,
      "estimated_diameter" : {
        "kilometers" : {
          "estimated_diameter_min" : 0.0096639567,
          "estimated_diameter_max" : 0.0216092642
        },
        "meters" : {
          "estimated_diameter_min" : 9.6639567269,
          "estimated_diameter_max" : 21.609264173
        },
        "miles" : {
          "estimated_diameter_min" : 0.0060049025,
          "estimated_diameter_max" : 0.0134273701
        },
        "feet" : {
          "estimated_diameter_min" : 31.705895788,
          "estimated_diameter_max" : 70.8965382695
        }
      },
      "is_potentially_hazardous_asteroid" : false,
      "close_approach_data" : [ {
        "close_approach_date" : "2012-05-22",
        "epoch_date_close_approach" : 1337670000000,
        "relative_velocity" : {
          "kilometers_per_second" : "8.6647262496",
          "kilometers_per_hour" : "31193.0144984164",
          "miles_per_hour" : "19382.126147641"
        },
        "miss_distance" : {
          "astronomical" : "0.2828239551",
          "lunar" : "110.0185165405",
          "kilometers" : "42309860",
          "miles" : "26290128"
        },
        "orbiting_body" : "Earth"
      } ],
      "orbital_data" : {
        "orbit_id" : "3",
        "orbit_determination_date" : "2017-04-06 08:19:01",
        "orbit_uncertainty" : "6",
        "minimum_orbit_intersection" : ".00223976",
        "jupiter_tisserand_invariant" : "6.091",
        "epoch_osculation" : "2458000.5",
        "eccentricity" : ".3458404440467126",
        "semi_major_axis" : ".986420173735552",
        "inclination" : "2.500098601413876",
        "ascending_node_longitude" : "6.219294469626103",
        "orbital_period" : "357.8420270713033",
        "perihelion_distance" : ".6452761828342133",
        "perihelion_argument" : "294.9074533476469",
        "aphelion_distance" : "1.327564164636891",
        "perihelion_time" : "2457913.918084464956",
        "mean_anomaly" : "87.10404936982205",
        "mean_motion" : "1.006030518400419",
        "equinox" : "J2000"
      }
    } ]
  }
}